
1 41917U 17003A   25162.20604499  .00000121  00000-0  36288-4 0  9998
2 41917  86.3977 243.5009 0002583  84.4541 275.6949 14.34218468440035

1 41918U 17003B   25161.77474940  .00000171  00000-0  53902-4 0  9993
2 41918  86.3978 243.5820 0002823 100.8665 259.2849 14.34218674439994

1 41919U 17003C   25161.92062617  .00000082  00000-0  22216-4 0  9990
2 41919  86.3978 243.5742 0002306  99.2915 260.8542 14.34216873439989

1 41920U 17003D   25162.16798827  .00000143  00000-0  44052-4 0  9998
2 41920  86.3976 243.4024 0002160  96.3218 263.8223 14.34218694440101

1 41921U 17003E   25161.65034442  .00000217  00000-0  70392-4 0  9996
2 41921  86.3997 212.0834 0002503  96.2707 263.8774 14.34217276441881

1 41922U 17003F   25162.11090637  .00000110  00000-0  32137-4 0  9994
2 41922  86.3977 243.4632 0002419 105.3640 254.7823 14.34217963440086

1 41923U 17003G   25161.76840655  .00000150  00000-0  46424-4 0  9996
2 41923  86.3979 243.5910 0002572  96.4104 263.7385 14.34218564440030

1 41924U 17003H   25161.65715873  .00000051  00000-0  11034-4 0  9997
2 41924  86.3991 211.9825 0002308  87.6726 272.4733 14.34217873441855
